{
    "links": {
        "self": "http://www.neowsapp.com/rest/v1/neo/3160794?api_key=iIulBulltgU6a56xZRHN4H3l9WmuAYTsLGpBGhQ2"
    },
    "id": "3160794",
    "neo_reference_id": "3160794",
    "name": "(2003 SM215)",
    "designation": "2003 SM215",
    "nasa_jpl_url": "http://ssd.jpl.nasa.gov/sbdb.cgi?sstr=3160794",
    "absolute_magnitude_h": 27.5,
    "estimated_diameter": {
        "kilometers": {
            "estimated_diameter_min": 0.008405334,
            "estimated_diameter_max": 0.0187948982
        },
        "meters": {
            "estimated_diameter_min": 8.4053340207,
            "estimated_diameter_max": 18.7948982439
        },
        "miles": {
            "estimated_diameter_min": 0.0052228308,
            "estimated_diameter_max": 0.0116786047
        },
        "feet": {
            "estimated_diameter_min": 27.5765560686,
            "estimated_diameter_max": 61.6630539546
        }
    },
    "is_potentially_hazardous_asteroid": false,
    "close_approach_data": [
        {
            "close_approach_date": "2003-08-09",
            "close_approach_date_full": "2003-Aug-09 00:55",
            "epoch_date_close_approach": 1060390500000,
            "relative_velocity": {
                "kilometers_per_second": "13.0816478062",
                "kilometers_per_hour": "47093.9321023279",
                "miles_per_hour": "29262.3379776937"
            },
            "miss_distance": {
                "astronomical": "0.0452009297",
                "lunar": "17.5831616533",
                "kilometers": "6761962.805139739",
                "miles": "4201688.8522128382"
            },
            "orbiting_body": "Mars"
        },
        {
            "close_approach_date": "2003-09-30",
            "close_approach_date_full": "2003-Sep-30 16:47",
            "epoch_date_close_approach": 1064940420000,
            "relative_velocity": {
                "kilometers_per_second": "10.7124480868",
                "kilometers_per_hour": "38564.8131123616",
                "miles_per_hour": "23962.6751252893"
            },
            "miss_distance": {
                "astronomical": "0.0090825597",
                "lunar": "3.5331157233",
                "kilometers": "1358731.585267839",
                "miles": "844276.6574566182"
            },
            "orbiting_body": "Earth"
        }
    ],
    "orbital_data": {
        "orbit_id": "7",
        "orbit_determination_date": "2017-04-06 09:13:46",
        "first_observation_date": "2003-09-28",
        "last_observation_date": "2003-09-30",
        "data_arc_in_days": 2,
        "observations_used": 29,
        "orbit_uncertainty": "8",
        "minimum_orbit_intersection": ".00394081",
        "jupiter_tisserand_invariant": "3.504",
        "epoch_osculation": "2452911.5",
        "eccentricity": ".563608828409858",
        "semi_major_axis": "2.120808956823743",
        "inclination": "5.017050703198076",
        "ascending_node_longitude": "6.096905242071361",
        "orbital_period": "1128.108184835289",
        "perihelion_distance": ".9255023053871799",
        "perihelion_argument": "40.49661731576573",
        "aphelion_distance": "3.316115608260305",
        "perihelion_time": "2452943.130347649212",
        "mean_anomaly": "349.9061762809753",
        "mean_motion": ".3191183299964819",
        "equinox": "J2000",
        "orbit_class": {
            "orbit_class_type": "APO",
            "orbit_class_description": "Near-Earth asteroid orbits which cross the Earth’s orbit similar to that of 1862 Apollo",
            "orbit_class_range": "a (semi-major axis) > 1.0 AU; q (perihelion) < 1.017 AU"
        }
    },
    "is_sentry_object": false
}